{"type": "FeatureCollection", "features": [ {"type": "Feature", "properties": {"norad_id": 41785, "name": "ALSAT 1B", "group": "resource", "lat": -27.84970638401453, "lon": 8.064343644442264, "alt_km": 663.4924429365337, "timestamp": "2025-12-18T08:58:43.049068+00:00", "meta": {"OBJECT_NAME": "ALSAT 1B", "OBJECT_ID": "2016-059C", "EPOCH": "2025-12-17T23:19:05.496096", "MEAN_MOTION": 14.72081213, "ECCENTRICITY": 0.001077, "INCLINATION": 97.7813, "RA_OF_ASC_NODE": 3.5361, "ARG_OF_PERICENTER": 88.5981, "MEAN_ANOMALY": 271.646, "EPHEMERIS_TYPE": 0, "CLASSIFICATION_TYPE": "U", "NORAD_CAT_ID": 41785, "ELEMENT_SET_NO": 999, "REV_AT_EPOCH": 49391, "BSTAR": 7.0744609e-05, "MEAN_MOTION_DOT": 3.98e-06, "MEAN_MOTION_DDOT": 0}, "tle": {"line1": "1 41785U 16059C   25351.97159139  .00000398  00000+0  70745-4 0  9992", "line2": "2 41785  97.7813   3.5361 0010770  88.5981 271.6460 14.72081213493915"}}, "geometry": {"type": "Point", "coordinates": [8.064343644442264, -27.84970638401453]}}, {"type": "Feature", "properties": {"norad_id": 41787, "name": "PATHFINDER 1", "group": "resource", "lat": -45.42686746960585, "lon": 2.898131710713419, "alt_km": 683.4846653054528, "timestamp": "2025-12-18T08:58:43.049078+00:00", "meta": {"OBJECT_NAME": "PATHFINDER 1", "OBJECT_ID": "2016-059E", "EPOCH": "2025-12-17T21:43:53.212800", "MEAN_MOTION": 14.67330244, "ECCENTRICITY": 0.00299287, "INCLINATION": 97.8136, "RA_OF_ASC_NODE": 354.4394, "ARG_OF_PERICENTER": 65.5153, "MEAN_ANOMALY": 294.9169, "EPHEMERIS_TYPE": 0, "CLASSIFICATION_TYPE": "U", "NORAD_CAT_ID": 41787, "ELEMENT_SET_NO": 999, "REV_AT_EPOCH": 49312, "BSTAR": 0.00012459494, "MEAN_MOTION_DOT": 6.61e-06, "MEAN_MOTION_DDOT": 0}, "tle": {"line1": "1 41787U 16059E   25351.90547700  .00000661  00000+0  12459-3 0  9992", "line2": "2 41787  97.8136 354.4394 0029928  65.5153 294.9169 14.67330244493123"}}, "geometry": {"type": "Point", "coordinates": [2.898131710713419, -45.42686746960585]}}, {"type": "Feature", "properties": {"norad_id": 41790, "name": "SCATSAT 1", "group": "resource", "lat": -3.2655541660262695, "lon": -131.35368532463923, "alt_km": 624.2942761478535, "timestamp": "2025-12-18T08:58:43.049089+00:00", "meta": {"OBJECT_NAME": "SCATSAT 1", "OBJECT_ID": "2016-059H", "EPOCH": "2025-12-17T17:32:40.934112", "MEAN_MOTION": 14.78953066, "ECCENTRICITY": 0.00564081, "INCLINATION": 98.1459, "RA_OF_ASC_NODE": 48.4635, "ARG_OF_PERICENTER": 112.233, "MEAN_ANOMALY": 248.4878, "EPHEMERIS_TYPE": 0, "CLASSIFICATION_TYPE": "U", "NORAD_CAT_ID": 41790, "ELEMENT_SET_NO": 999, "REV_AT_EPOCH": 7476, "BSTAR": 0.0001711888, "MEAN_MOTION_DOT": 1.24e-05, "MEAN_MOTION_DDOT": 0}, "tle": {"line1": "1 41790U 16059H   25351.73102933  .00001240  00000+0  17119-3 0  9994", "line2": "2 41790  98.1459  48.4635 0056408 112.2330 248.4878 14.78953066 74768"}}, "geometry": {"type": "Point", "coordinates": [-131.35368532463923, -3.2655541660262695]}}, {"type": "Feature", "properties": {"norad_id": 41875, "name": "GOKTURK 1A", "group": "resource", "lat": -59.325583862893126, "lon": -101.3670689617403, "alt_km": 691.9707858656002, "timestamp": "2025-12-18T08:58:43.049099+00:00", "meta": {"OBJECT_NAME": "GOKTURK 1A", "OBJECT_ID": "2016-073A", "EPOCH": "2025-12-17T23:24:14.040864", "MEAN_MOTION": 14.62785862, "ECCENTRICITY": 0.00012342, "INCLINATION": 98.1432, "RA_OF_ASC_NODE": 244.2704, "ARG_OF_PERICENTER": 79.6067, "MEAN_ANOMALY": 280.5274, "EPHEMERIS_TYPE": 0, "CLASSIFICATION_TYPE": "U", "NORAD_CAT_ID": 41875, "ELEMENT_SET_NO": 999, "REV_AT_EPOCH": 48233, "BSTAR": 9.8467025e-05, "MEAN_MOTION_DOT": 4.55e-06, "MEAN_MOTION_DDOT": 0}, "tle": {"line1": "1 41875U 16073A   25351.97516251  .00000455  00000+0  98467-4 0  9995", "line2": "2 41875  98.1432 244.2704 0001234  79.6067 280.5274 14.62785862482339"}}, "geometry": {"type": "Point", "coordinates": [-101.3670689617403, -59.325583862893126]}}, {"type": "Feature", "properties": {"norad_id": 41877, "name": "RESOURCESAT-2A", "group": "resource", "lat": -53.86443488485105, "lon": -130.01615056995905, "alt_km": 825.9766264907903, "timestamp": "2025-12-18T08:58:43.049109+00:00", "meta": {"OBJECT_NAME": "RESOURCESAT-2A", "OBJECT_ID": "2016-074A", "EPOCH": "2025-12-17T23:25:54.411744", "MEAN_MOTION": 14.21601173, "ECCENTRICITY": 0.00013044, "INCLINATION": 98.7756, "RA_OF_ASC_NODE": 61.802, "ARG_OF_PERICENTER": 229.2957, "MEAN_ANOMALY": 130.8107, "EPHEMERIS_TYPE": 0, "CLASSIFICATION_TYPE": "U", "NORAD_CAT_ID": 41877, "ELEMENT_SET_NO": 999, "REV_AT_EPOCH": 46855, "BSTAR": 5.2889613e-05, "MEAN_MOTION_DOT": 7.2e-07, "MEAN_MOTION_DDOT": 0}, "tle": {"line1": "1 41877U 16074A   25351.97632421  .00000072  00000+0  52890-4 0  9991", "line2": "2 41877  98.7756  61.8020 0001304 229.2957 130.8107 14.21601173468556"}}, "geometry": {"type": "Point", "coordinates": [-130.01615056995905, -53.86443488485105]}}, {"type": "Feature", "properties": {"norad_id": 41948, "name": "CARTOSAT-2D", "group": "resource", "lat": 58.23077538853694, "lon": 37.60650812255434, "alt_km": 502.1038632374184, "timestamp": "2025-12-18T08:58:43.049120+00:00", "meta": {"OBJECT_NAME": "CARTOSAT-2D", "OBJECT_ID": "2017-008A", "EPOCH": "2025-12-17T23:14:08.198880", "MEAN_MOTION": 15.19311008, "ECCENTRICITY": 0.00050745, "INCLINATION": 97.4389, "RA_OF_ASC_NODE": 49.3867, "ARG_OF_PERICENTER": 146.8087, "MEAN_ANOMALY": 213.3467, "EPHEMERIS_TYPE": 0, "CLASSIFICATION_TYPE": "U", "NORAD_CAT_ID": 41948, "ELEMENT_SET_NO": 999, "REV_AT_EPOCH": 49006, "BSTAR": 0.00022714421, "MEAN_MOTION_DOT": 4.729e-05, "MEAN_MOTION_DDOT": 0}, "tle": {"line1": "1 41948U 17008A   25351.96815045  .00004729  00000+0  22714-3 0  9996", "line2": "2 41948  97.4389  49.3867 0005074 146.8087 213.3467 15.19311008490069"}}, "geometry": {"type": "Point", "coordinates": [37.60650812255434, 58.23077538853694]}}, {"type": "Feature", "properties": {"norad_id": 42063, "name": "SENTINEL-2B", "group": "resource", "lat": 29.43299953596655, "lon": 59.85949086123697, "alt_km": 787.1224141617495, "timestamp": "2025-12-18T08:58:43.049129+00:00", "meta": {"OBJECT_NAME": "SENTINEL-2B", "OBJECT_ID": "2017-013A", "EPOCH": "2025-12-17T22:46:11.566272", "MEAN_MOTION": 14.30818263, "ECCENTRICITY": 0.00011522, "INCLINATION": 98.5715, "RA_OF_ASC_NODE": 64.3219, "ARG_OF_PERICENTER": 92.9086, "MEAN_ANOMALY": 267.2229, "EPHEMERIS_TYPE": 0, "CLASSIFICATION_TYPE": "U", "NORAD_CAT_ID": 42063, "ELEMENT_SET_NO": 999, "REV_AT_EPOCH": 45872, "BSTAR": 8.1445788e-05, "MEAN_MOTION_DOT": 1.7e-06, "MEAN_MOTION_DDOT": 0}, "tle": {"line1": "1 42063U 17013A   25351.94874498  .00000170  00000+0  81446-4 0  9990", "line2": "2 42063  98.5715  64.3219 0001152  92.9086 267.2229 14.30818263458722"}}, "geometry": {"type": "Point", "coordinates": [59.85949086123697, 29.43299953596655]}}, {"type": "Feature", "properties": {"norad_id": 42767, "name": "CARTOSAT-2E", "group": "resource", "lat": -31.05078299131134, "lon": 54.409643584847615, "alt_km": 514.9281851990809, "timestamp": "2025-12-18T08:58:43.049140+00:00", "meta": {"OBJECT_NAME": "CARTOSAT-2E", "OBJECT_ID": "2017-036C", "EPOCH": "2025-12-17T23:37:55.006752", "MEAN_MOTION": 15.19248395, "ECCENTRICITY": 0.00023136, "INCLINATION": 97.4552, "RA_OF_ASC_NODE": 49.5034, "ARG_OF_PERICENTER": 212.8894, "MEAN_ANOMALY": 147.2197, "EPHEMERIS_TYPE": 0, "CLASSIFICATION_TYPE": "U", "NORAD_CAT_ID": 42767, "ELEMENT_SET_NO": 999, "REV_AT_EPOCH": 47063, "BSTAR": 0.0001980688, "MEAN_MOTION_DOT": 4.106e-05, "MEAN_MOTION_DDOT": 0}, "tle": {"line1": "1 42767U 17036C   25351.98466443  .00004106  00000+0  19807-3 0  9991", "line2": "2 42767  97.4552  49.5034 0002313 212.8894 147.2197 15.19248395470636"}}, "geometry": {"type": "Point", "coordinates": [54.409643584847615, -31.05078299131134]}}, {"type": "Feature", "properties": {"norad_id": 42920, "name": "FORMOSAT-5", "group": "resource", "lat": 76.34917191708455, "lon": 29.923162510701367, "alt_km": 722.3554938576999, "timestamp": "2025-12-18T08:58:43.049150+00:00", "meta": {"OBJECT_NAME": "FORMOSAT-5", "OBJECT_ID": "2017-049A", "EPOCH": "2025-12-17T19:22:22.650240", "MEAN_MOTION": 14.50763591, "ECCENTRICITY": 0.00098702, "INCLINATION": 98.2449, "RA_OF_ASC_NODE": 66.0252, "ARG_OF_PERICENTER": 284.4391, "MEAN_ANOMALY": 75.5709, "EPHEMERIS_TYPE": 0, "CLASSIFICATION_TYPE": "U", "NORAD_CAT_ID": 42920, "ELEMENT_SET_NO": 999, "REV_AT_EPOCH": 44037, "BSTAR": 4.625776e-05, "MEAN_MOTION_DOT": 1.38e-06, "MEAN_MOTION_DDOT": 0}, "tle": {"line1": "1 42920U 17049A   25351.80720660  .00000138  00000+0  46258-4 0  9993", "line2": "2 42920  98.2449  66.0252 0009870 284.4391  75.5709 14.50763591440373"}}, "geometry": {"type": "Point", "coordinates": [29.923162510701367, 76.34917191708455]}}, {"type": "Feature", "properties": {"norad_id": 42969, "name": "SENTINEL-5P", "group": "resource", "lat": -18.614905441057033, "lon": 107.92464976206251, "alt_km": 832.2264558035749, "timestamp": "2025-12-18T08:58:43.049161+00:00", "meta": {"OBJECT_NAME": "SENTINEL-5P", "OBJECT_ID": "2017-064A", "EPOCH": "2025-12-17T18:30:43.644672", "MEAN_MOTION": 14.19518769, "ECCENTRICITY": 0.00010066, "INCLINATION": 98.779, "RA_OF_ASC_NODE": 290.3109, "ARG_OF_PERICENTER": 89.6967, "MEAN_ANOMALY": 270.4324, "EPHEMERIS_TYPE": 0, "CLASSIFICATION_TYPE": "U", "NORAD_CAT_ID": 42969, "ELEMENT_SET_NO": 999, "REV_AT_EPOCH": 42382, "BSTAR": 4.2650522e-05, "MEAN_MOTION_DOT": 4.6e-07, "MEAN_MOTION_DDOT": 0}, "tle": {"line1": "1 42969U 17064A   25351.77133848  .00000046  00000+0  42651-4 0  9996", "line2": "2 42969  98.7790 290.3109 0001006  89.6967 270.4324 14.19518769423820"}}, "geometry": {"type": "Point", "coordinates": [107.92464976206251, -18.614905441057033]}}]}